     3.00           N                   E                   RINEX VERSION / TYPE
BRD_USR             ESA                 20190105 041911  UTCPGM / RUN BY / DATE
 GAL   4.1500E+01 -7.8125E-03 -2.7466E-04  0.0000E+00       IONOSPHERIC CORR
GAUT -9.3132257462E-10 0.000000000E+00 518400 2034 GSTB   0 TIME SYSTEM CORR
GPGA -3.2014213502E-09-1.332267630E-15 518400 2034 GSTB   0 TIME SYSTEM CORR
                                                            END OF HEADER
E02 2019 01 05 02 30 00 4.201254341751E-05 1.520561454527E-12 0.000000000000E+00
     1.110000000000E+02 1.660625000000E+02 2.477960359852E-09-2.809203740463E+00
     7.815659046173E-06 2.695614239201E-04 1.077353954315E-05 5.440626869202E+03
     5.274000000000E+05-1.490116119385E-08-2.825475500304E+00-9.313225746155E-09
     9.903625479353E-01 1.247812500000E+02-2.722934380232E-01-5.154143262184E-09
     8.714648714384E-11 2.580000000000E+02 2.034000000000E+03 0.000000000000E+00
     3.120000000000E+00 0.000000000000E+00-6.286427378654E-09 0.000000000000E+00
     5.281000000000E+05 0.000000000000E+00 0.000000000000E+00 0.000000000000E+00
E04 2019 01 05 02 30 00-1.934532192536E-04-7.943867785798E-12 0.000000000000E+00
     1.110000000000E+02 1.553125000000E+01 3.663009721915E-09-5.035507336293E-01
     7.823109626770E-07 8.576479740441E-05 4.243105649948E-06 5.440601512909E+03
     5.274000000000E+05-4.470348358154E-08 1.365499549714E+00-4.470348358154E-08
     9.522043325725E-01 2.464062500000E+02 1.872658383533E+00-5.688808390275E-09
     2.603679882289E-10 2.580000000000E+02 2.034000000000E+03 0.000000000000E+00
     3.120000000000E+00 0.000000000000E+00-7.916241884232E-09 0.000000000000E+00
     5.281000000000E+05 0.000000000000E+00 0.000000000000E+00 0.000000000000E+00
E07 2019 01 05 02 30 00-1.066388795152E-04-7.176481631177E-12 0.000000000000E+00
     1.110000000000E+02 1.878125000000E+01 3.678010346751E-09-2.679305812390E+00
     9.294599294662E-07 1.468951813877E-04 3.943219780922E-06 5.440603189468E+03
     5.274000000000E+05-3.725290298462E-09 1.365450476127E+00 2.235174179077E-08
     9.522038571241E-01 2.521875000000E+02 1.173194263450E-01-5.784883820774E-09
     2.546534644818E-10 2.580000000000E+02 2.034000000000E+03 0.000000000000E+00
     3.120000000000E+00 0.000000000000E+00 2.328306436539E-10 0.000000000000E+00
     5.281000000000E+05 0.000000000000E+00 0.000000000000E+00 0.000000000000E+00
E09 2019 01 05 02 30 00 6.567740929313E-03-1.138289462688E-11 0.000000000000E+00
     1.110000000000E+02 1.831250000000E+01 3.515860735426E-09 4.233093683057E-01
     8.903443813324E-07 2.535451203585E-04 4.529953002930E-06 5.440602596283E+03
     5.274000000000E+05-3.725290298462E-09 1.356798864919E+00 4.842877388000E-08
     9.581762713849E-01 2.420000000000E+02 1.563004073165E-01-5.623805682652E-09
     3.360854278785E-10 2.580000000000E+02 2.034000000000E+03 0.000000000000E+00
     3.120000000000E+00 0.000000000000E+00-3.259629011154E-09 0.000000000000E+00
     5.281000000000E+05 0.000000000000E+00 0.000000000000E+00 0.000000000000E+00
E11 2019 01 05 02 30 00 5.719020555262E-03 1.065814103640E-12 0.000000000000E+00
     1.110000000000E+02-2.111562500000E+02 2.708684256143E-09 3.032324102847E+00
    -9.905546903610E-06 2.352795563638E-04 4.066154360771E-06 5.440610441208E+03
     5.274000000000E+05 1.303851604462E-08-7.397388443607E-01 1.676380634308E-08
     9.819993949136E-01 2.629375000000E+02-3.572243145237E-01-5.559160132762E-09
    -3.950164540209E-10 2.580000000000E+02 2.034000000000E+03 0.000000000000E+00
     3.120000000000E+00 0.000000000000E+00-1.885928213596E-08 0.000000000000E+00
     5.281000000000E+05 0.000000000000E+00 0.000000000000E+00 0.000000000000E+00
E12 2019 01 05 02 30 00 5.871889996342E-03 8.424194675172E-11 0.000000000000E+00
     1.110000000000E+02-2.223437500000E+02 2.809045579452E-09-1.901897787163E+00
    -1.032277941704E-05 3.662245580927E-04 4.686415195465E-06 5.440607456207E+03
     5.274000000000E+05-9.313225746155E-09-7.397544185866E-01 1.490116119385E-08
     9.820131053818E-01 2.461562500000E+02-9.025177829283E-01-5.585232647358E-09
    -4.282321233011E-10 2.580000000000E+02 2.034000000000E+03 0.000000000000E+00
     3.120000000000E+00 0.000000000000E+00-1.559965312481E-08 0.000000000000E+00
     5.281000000000E+05 0.000000000000E+00 0.000000000000E+00 0.000000000000E+00
E14 2019 01 05 02 30 00 6.464612204581E-03-5.712763595511E-12 0.000000000000E+00
     1.110000000000E+02-8.740625000000E+01 5.198430821224E-09 2.141868372066E+00
    -5.258247256279E-06 1.663904705783E-01-1.219660043716E-05 5.289391807556E+03
     5.274000000000E+05 3.175809979439E-06-1.340003911444E+00-1.102685928345E-06
     8.825593042175E-01 5.855937500000E+02 1.452316658658E+00-6.610275344501E-09
    -3.643008888800E-11 2.580000000000E+02 2.034000000000E+03 0.000000000000E+00
     3.120000000000E+00 5.600000000000E+01 3.306195139885E-08 0.000000000000E+00
     5.281000000000E+05 0.000000000000E+00 0.000000000000E+00 0.000000000000E+00
E15 2019 01 05 02 30 00 9.238334605470E-04-1.051603248925E-12 0.000000000000E+00
     1.110000000000E+02-1.832500000000E+02 2.676182902331E-09 2.010577383178E+00
    -8.573755621910E-06 3.782325657085E-04 4.308298230171E-06 5.440606487274E+03
     5.274000000000E+05-4.470348358154E-08-7.450532278289E-01-1.862645149231E-08
     9.851979585009E-01 2.556250000000E+02-1.688517508480E+00-5.524515832545E-09
    -3.946592962867E-10 2.580000000000E+02 2.034000000000E+03 0.000000000000E+00
     3.120000000000E+00 5.600000000000E+01 1.396983861923E-09 0.000000000000E+00
     5.281000000000E+05 0.000000000000E+00 0.000000000000E+00 0.000000000000E+00
E18 2019 01 05 02 30 00 5.630159634165E-03-2.857802883227E-11 0.000000000000E+00
     1.110000000000E+02-1.821875000000E+01 5.692737125351E-09-1.029891068423E+00
     8.307397365570E-07 1.664267444285E-01 4.438683390617E-06 5.289331356049E+03
     5.274000000000E+05-1.471489667892E-06-1.322795269607E+00 4.783272743225E-06
     8.817595868832E-01 2.650312500000E+02 1.436840404410E+00-8.855368861658E-09
    -1.010756387775E-09 2.580000000000E+02 2.034000000000E+03 0.000000000000E+00
     3.120000000000E+00 5.600000000000E+01 1.420266926289E-08 0.000000000000E+00
     5.281000000000E+05 0.000000000000E+00 0.000000000000E+00 0.000000000000E+00
E19 2019 01 05 02 30 00-9.366543963552E-06 1.563194018672E-13 0.000000000000E+00
     1.110000000000E+02 1.746875000000E+01 3.643366046534E-09 1.889133995157E-02
     7.934868335724E-07 1.405978109688E-04 4.105269908905E-06 5.440601089478E+03
     5.274000000000E+05 5.215406417847E-08 1.362158094141E+00-9.313225746155E-09
     9.579322727414E-01 2.508125000000E+02 2.210869303924E+00-5.714523747137E-09
     2.314382117591E-10 2.580000000000E+02 2.034000000000E+03 0.000000000000E+00
     3.120000000000E+00 0.000000000000E+00-8.614733815193E-09 0.000000000000E+00
     5.281000000000E+05 0.000000000000E+00 0.000000000000E+00 0.000000000000E+00
E26 2019 01 05 02 30 00 5.056063120719E-03-4.341416115494E-11 0.000000000000E+00
     1.110000000000E+02-1.951562500000E+02 2.825831992959E-09 8.780150242329E-01
    -9.072944521904E-06 3.240419318900E-04 5.386769771576E-06 5.440611017227E+03
     5.274000000000E+05-2.421438694000E-08-7.361015092168E-01 5.029141902924E-08
     9.783572204367E-01 2.342187500000E+02-2.119859223068E+00-5.574517915332E-09
    -3.568005764619E-10 2.580000000000E+02 2.034000000000E+03 0.000000000000E+00
     3.120000000000E+00 0.000000000000E+00 1.164153218269E-09 0.000000000000E+00
     5.281000000000E+05 0.000000000000E+00 0.000000000000E+00 0.000000000000E+00
E27 2019 01 05 02 30 00 5.561680300161E-04-7.759126674500E-12 0.000000000000E+00
     1.110000000000E+02 1.800312500000E+02 2.400099973798E-09 2.585883218701E+00
     8.361414074898E-06 2.086177701131E-04 9.736046195030E-06 5.440636037827E+03
     5.274000000000E+05-1.676380634308E-08-2.828032685496E+00 3.352761268616E-08
     9.898913039861E-01 1.443125000000E+02-9.354758087452E-01-5.157357681791E-09
     9.250385315679E-11 2.580000000000E+02 2.034000000000E+03 0.000000000000E+00
     3.120000000000E+00 0.000000000000E+00-2.793967723846E-09 0.000000000000E+00
     5.281000000000E+05 0.000000000000E+00 0.000000000000E+00 0.000000000000E+00
E31 2019 01 05 02 30 00 9.407679899596E-04-9.833911462920E-12 0.000000000000E+00
     1.110000000000E+02 2.019375000000E+02 2.420100806913E-09 8.364443973808E-01
     9.350478649139E-06 2.566047478467E-04 1.069530844688E-05 5.440633365631E+03
     5.274000000000E+05 1.098960638046E-07-2.828081394816E+00-1.043081283569E-07
     9.898944039096E-01 1.242187500000E+02-1.542208508340E+00-5.104141179396E-09
     1.189335254873E-10 2.580000000000E+02 2.034000000000E+03 0.000000000000E+00
     3.120000000000E+00 0.000000000000E+00 2.328306436539E-10 0.000000000000E+00
     5.281000000000E+05 0.000000000000E+00 0.000000000000E+00 0.000000000000E+00
E36 2019 01 05 02 30 00 7.634059875272E-04-4.519051799434E-12 0.000000000000E+00
     1.110000000000E+02-1.964687500000E+02 2.736899717145E-09-2.741434743624E+00
    -9.154900908470E-06 3.240015357733E-04 3.905966877937E-06 5.440602663040E+03
     5.274000000000E+05 1.862645149231E-08-7.450519843486E-01-3.725290298462E-09
     9.852446314393E-01 2.679375000000E+02-1.646784115900E+00-5.528087409887E-09
    -3.400141629547E-10 2.580000000000E+02 2.034000000000E+03 0.000000000000E+00
     3.120000000000E+00 5.600000000000E+01 9.313225746155E-10 0.000000000000E+00
     5.281000000000E+05 0.000000000000E+00 0.000000000000E+00 0.000000000000E+00
